start=new Date('2023-03-31T00:00:00.000Z').valueOf();
sats=[{"OBJECT_TYPE":"PAYLOAD","RA_OF_ASC_NODE":"58.2872","MEAN_MOTION":"15.02568104","MEAN_MOTION_DDOT":"0.0000000000000","GP_ID":"229187182","SEMIMAJOR_AXIS":"6937.118","APOAPSIS":"559.780","NORAD_CAT_ID":"55490","LAUNCH_DATE":"2023-02-02","OBJECT_NAME":"STARLINK-5373","TIME_SYSTEM":"UTC","OBJECT_ID":"2023-015AT","CENTER_NAME":"EARTH","REF_FRAME":"TEME","COUNTRY_CODE":"US","EPHEMERIS_TYPE":"0","TLE_LINE2":"2 55490  43.0012  58.2872 0001150 255.9275 177.6785 15.02568104  1306","CLASSIFICATION_TYPE":"U","PERIOD":"95.836","FILE":"3875726","DECAY_DATE":null,"EPOCH":"2023-03-31T00:00:00.999648","MEAN_ANOMALY":"177.6785","PERIAPSIS":"558.185","TLE_LINE1":"1 55490U 23015AT  23090.00001157 -.00031533  00000-0 -23277-2 0  9992","ELEMENT_SET_NO":"999","REV_AT_EPOCH":"130","ARG_OF_PERICENTER":"255.9275","BSTAR":"-0.00232770000000","RCS_SIZE":"LARGE","MEAN_MOTION_DOT":"-0.00031533","ECCENTRICITY":"0.00011500","INCLINATION":"43.0012","SITE":"AFETR","MEAN_ELEMENT_THEORY":"SGP4"},{"MEAN_ELEMENT_THEORY":"SGP4","INCLINATION":"43.0013","SITE":"AFETR","ECCENTRICITY":"0.00016230","RCS_SIZE":"LARGE","MEAN_MOTION_DOT":"0.00002641","BSTAR":"0.00002357900000","TLE_LINE1":"1 55491U 23015AU  23089.85667829  .00002641  00000-0  23579-4 0  9991","ARG_OF_PERICENTER":"271.9266","REV_AT_EPOCH":"905","ELEMENT_SET_NO":"999","PERIAPSIS":"353.917","MEAN_ANOMALY":"88.1416","FILE":"3875726","CLASSIFICATION_TYPE":"U","PERIOD":"91.640","EPOCH":"2023-03-30T20:33:37.004256","DECAY_DATE":null,"COUNTRY_CODE":"US","REF_FRAME":"TEME","TLE_LINE2":"2 55491  43.0013  47.7294 0001623 271.9266  88.1416 15.71360444  9052","EPHEMERIS_TYPE":"0","CENTER_NAME":"EARTH","TIME_SYSTEM":"UTC","OBJECT_NAME":"STARLINK-5364","OBJECT_ID":"2023-015AU","APOAPSIS":"356.103","NORAD_CAT_ID":"55491","SEMIMAJOR_AXIS":"6733.145","LAUNCH_DATE":"2023-02-02","GP_ID":"229186451","MEAN_MOTION_DDOT":"0.0000000000000","OBJECT_TYPE":"PAYLOAD","MEAN_MOTION":"15.71360444","RA_OF_ASC_NODE":"47.7294"},{"EPHEMERIS_TYPE":"0","TLE_LINE2":"2 55492  43.0021  59.1465 0004711 331.0845  28.9736 15.03564100  8923","REF_FRAME":"TEME","COUNTRY_CODE":"US","DECAY_DATE":null,"EPOCH":"2023-03-30T20:41:00.530016","CLASSIFICATION_TYPE":"U","PERIOD":"95.772","FILE":"3875726","OBJECT_ID":"2023-015AV","OBJECT_NAME":"STARLINK-5013","TIME_SYSTEM":"UTC","CENTER_NAME":"EARTH","LAUNCH_DATE":"2023-02-02","SEMIMAJOR_AXIS":"6934.054","APOAPSIS":"559.185","NORAD_CAT_ID":"55492","RA_OF_ASC_NODE":"59.1465","MEAN_MOTION":"15.03564100","OBJECT_TYPE":"PAYLOAD","MEAN_MOTION_DDOT":"0.0000000000000","GP_ID":"229186202","SITE":"AFETR","INCLINATION":"43.0021","MEAN_ELEMENT_THEORY":"SGP4","MEAN_MOTION_DOT":"-0.00110352","RCS_SIZE":"LARGE","ECCENTRICITY":"0.00047110","ELEMENT_SET_NO":"999","REV_AT_EPOCH":"892","ARG_OF_PERICENTER":"331.0845","TLE_LINE1":"1 55492U 23015AV  23089.86181169 -.00110352  00000-0 -80566-2 0  9999","BSTAR":"-0.00805660000000","MEAN_ANOMALY":"28.9736","PERIAPSIS":"552.652"},{"REF_FRAME":"TEME","COUNTRY_CODE":"US","TLE_LINE2":"2 55493  43.0009  59.1281 0001660 274.4101  85.6552 15.04494116  8927","EPHEMERIS_TYPE":"0","FILE":"3875726","CLASSIFICATION_TYPE":"U","PERIOD":"95.713","EPOCH":"2023-03-30T20:37:32.605824","DECAY_DATE":null,"TIME_SYSTEM":"UTC","OBJECT_NAME":"STARLINK-5362","OBJECT_ID":"2023-015AW","CENTER_NAME":"EARTH","APOAPSIS":"554.212","NORAD_CAT_ID":"55493","SEMIMAJOR_AXIS":"6931.196","LAUNCH_DATE":"2023-02-02","OBJECT_TYPE":"PAYLOAD","MEAN_MOTION":"15.04494116","RA_OF_ASC_NODE":"59.1281","GP_ID":"229187453","MEAN_MOTION_DDOT":"0.0000000000000","INCLINATION":"43.0009","SITE":"AFETR","MEAN_ELEMENT_THEORY":"SGP4","RCS_SIZE":"LARGE","MEAN_MOTION_DOT":"0.00015900","ECCENTRICITY":"0.00016600","TLE_LINE1":"1 55493U 23015AW  23089.85940516  .00015900  00000-0  11292-2 0  9999","REV_AT_EPOCH":"892","ARG_OF_PERICENTER":"274.4101","ELEMENT_SET_NO":"999","BSTAR":"0.00112920000000","MEAN_ANOMALY":"85.6552","PERIAPSIS":"551.910"},{"PERIAPSIS":"557.899","MEAN_ANOMALY":"212.3426","BSTAR":"-0.00016913000000","TLE_LINE1":"1 55494U 23015AX  23090.00001157 -.00002488  00000-0 -16913-3 0  9993","ELEMENT_SET_NO":"999","ARG_OF_PERICENTER":"239.2312","REV_AT_EPOCH":"130","ECCENTRICITY":"0.00016920","RCS_SIZE":"LARGE","MEAN_MOTION_DOT":"-0.00002488","MEAN_ELEMENT_THEORY":"SGP4","INCLINATION":"43.0011","SITE":"AFETR","MEAN_MOTION_DDOT":"0.0000000000000","GP_ID":"229187682","OBJECT_TYPE":"PAYLOAD","MEAN_MOTION":"15.02538937","RA_OF_ASC_NODE":"58.2446","SEMIMAJOR_AXIS":"6937.207","NORAD_CAT_ID":"55494","APOAPSIS":"560.246","LAUNCH_DATE":"2023-02-02","CENTER_NAME":"EARTH","OBJECT_NAME":"STARLINK-5344","TIME_SYSTEM":"UTC","OBJECT_ID":"2023-015AX","CLASSIFICATION_TYPE":"U","PERIOD":"95.838","FILE":"3875726","DECAY_DATE":null,"EPOCH":"2023-03-31T00:00:00.999648","COUNTRY_CODE":"US","REF_FRAME":"TEME","EPHEMERIS_TYPE":"0","TLE_LINE2":"2 55494  43.0011  58.2446 0001692 239.2312 212.3426 15.02538937  1304"},{"SITE":"AFETR","INCLINATION":"43.0015","MEAN_ELEMENT_THEORY":"SGP4","MEAN_MOTION_DOT":"0.00007373","RCS_SIZE":"LARGE","ECCENTRICITY":"0.00013840","ELEMENT_SET_NO":"999","REV_AT_EPOCH":"905","ARG_OF_PERICENTER":"257.7908","TLE_LINE1":"1 55495U 23015AY  23089.85894789  .00007373  00000-0  59600-4 0  9993","BSTAR":"0.00005960000000","MEAN_ANOMALY":"102.2805","PERIAPSIS":"354.070","EPHEMERIS_TYPE":"0","TLE_LINE2":"2 55495  43.0015  47.7593 0001384 257.7908 102.2805 15.71363239  9054","COUNTRY_CODE":"US","REF_FRAME":"TEME","DECAY_DATE":null,"EPOCH":"2023-03-30T20:36:53.097696","PERIOD":"91.640","CLASSIFICATION_TYPE":"U","FILE":"3875726","OBJECT_ID":"2023-015AY","OBJECT_NAME":"STARLINK-5100","TIME_SYSTEM":"UTC","CENTER_NAME":"EARTH","LAUNCH_DATE":"2023-02-02","SEMIMAJOR_AXIS":"6733.137","APOAPSIS":"355.934","NORAD_CAT_ID":"55495","RA_OF_ASC_NODE":"47.7593","MEAN_MOTION":"15.71363239","OBJECT_TYPE":"PAYLOAD","MEAN_MOTION_DDOT":"0.0000000000000","GP_ID":"229185952"},{"OBJECT_TYPE":"PAYLOAD","RA_OF_ASC_NODE":"48.8469","MEAN_MOTION":"15.70019200","GP_ID":"229186702","MEAN_MOTION_DDOT":"0.0000000000000","NORAD_CAT_ID":"55496","APOAPSIS":"361.574","SEMIMAJOR_AXIS":"6736.979","LAUNCH_DATE":"2023-02-02","TIME_SYSTEM":"UTC","OBJECT_NAME":"STARLINK-5139","OBJECT_ID":"2023-015AZ","CENTER_NAME":"EARTH","REF_FRAME":"TEME","COUNTRY_CODE":"US","TLE_LINE2":"2 55496  42.9998  48.8469 0004052 191.0397 169.0382 15.70019200  9049","EPHEMERIS_TYPE":"0","FILE":"3875726","PERIOD":"91.719","CLASSIFICATION_TYPE":"U","EPOCH":"2023-03-30T21:12:14.184000","DECAY_DATE":null,"MEAN_ANOMALY":"169.0382","PERIAPSIS":"356.114","TLE_LINE1":"1 55496U 23015AZ  23089.88349750  .00118721  00000-0  94721-3 0  9992","ARG_OF_PERICENTER":"191.0397","REV_AT_EPOCH":"904","ELEMENT_SET_NO":"999","BSTAR":"0.00094721000000","RCS_SIZE":"LARGE","MEAN_MOTION_DOT":"0.00118721","ECCENTRICITY":"0.00040520","INCLINATION":"42.9998","SITE":"AFETR","MEAN_ELEMENT_THEORY":"SGP4"},{"APOAPSIS":"557.675","NORAD_CAT_ID":"55497","SEMIMAJOR_AXIS":"6934.529","LAUNCH_DATE":"2023-02-02","GP_ID":"229186954","MEAN_MOTION_DDOT":"0.0000000000000","OBJECT_TYPE":"PAYLOAD","RA_OF_ASC_NODE":"59.0455","MEAN_MOTION":"15.03409478","FILE":"3875726","CLASSIFICATION_TYPE":"U","PERIOD":"95.782","EPOCH":"2023-03-30T20:21:50.972832","DECAY_DATE":null,"COUNTRY_CODE":"US","REF_FRAME":"TEME","TLE_LINE2":"2 55497  43.0022  59.0455 0001847 303.9667  56.1000 15.03409478  8927","EPHEMERIS_TYPE":"0","CENTER_NAME":"EARTH","TIME_SYSTEM":"UTC","OBJECT_NAME":"STARLINK-5363","OBJECT_ID":"2023-015BA","BSTAR":"-0.00930840000000","TLE_LINE1":"1 55497U 23015BA  23089.84850663 -.00126615  00000-0 -93084-2 0  9992","ARG_OF_PERICENTER":"303.9667","REV_AT_EPOCH":"892","ELEMENT_SET_NO":"999","PERIAPSIS":"555.113","MEAN_ANOMALY":"56.1000","MEAN_ELEMENT_THEORY":"SGP4","INCLINATION":"43.0022","SITE":"AFETR","ECCENTRICITY":"0.00018470","RCS_SIZE":"LARGE","MEAN_MOTION_DOT":"-0.00126615"},{"RCS_SIZE":"LARGE","MEAN_MOTION_DOT":"-0.00001609","ECCENTRICITY":"0.00013780","INCLINATION":"43.0028","SITE":"AFETR","MEAN_ELEMENT_THEORY":"SGP4","MEAN_ANOMALY":"87.6594","PERIAPSIS":"558.115","TLE_LINE1":"1 55498U 23015BB  23089.84015439 -.00001609  00000-0 -10404-3 0  9998","ELEMENT_SET_NO":"999","ARG_OF_PERICENTER":"272.4090","REV_AT_EPOCH":"892","BSTAR":"-0.00010404000000","OBJECT_NAME":"STARLINK-5365","TIME_SYSTEM":"UTC","OBJECT_ID":"2023-015BB","CENTER_NAME":"EARTH","COUNTRY_CODE":"US","REF_FRAME":"TEME","EPHEMERIS_TYPE":"0","TLE_LINE2":"2 55498  43.0028  58.9823 0001378 272.4090  87.6594 15.02539314  8929","PERIOD":"95.838","CLASSIFICATION_TYPE":"U","FILE":"3875726","DECAY_DATE":null,"EPOCH":"2023-03-30T20:09:49.339296","OBJECT_TYPE":"PAYLOAD","RA_OF_ASC_NODE":"58.9823","MEAN_MOTION":"15.02539314","MEAN_MOTION_DDOT":"0.0000000000000","GP_ID":"229187183","SEMIMAJOR_AXIS":"6937.206","NORAD_CAT_ID":"55498","APOAPSIS":"560.027","LAUNCH_DATE":"2023-02-02"},{"ECCENTRICITY":"0.00006710","RCS_SIZE":"LARGE","MEAN_MOTION_DOT":"-0.00001592","MEAN_ELEMENT_THEORY":"SGP4","INCLINATION":"43.0026","SITE":"AFETR","PERIAPSIS":"558.629","MEAN_ANOMALY":"124.4580","BSTAR":"-0.00010286000000","TLE_LINE1":"1 55499U 23015BC  23089.83460878 -.00001592  00000-0 -10286-3 0  9998","ARG_OF_PERICENTER":"235.6199","REV_AT_EPOCH":"967","ELEMENT_SET_NO":"999","CENTER_NAME":"EARTH","TIME_SYSTEM":"UTC","OBJECT_NAME":"STARLINK-5366","OBJECT_ID":"2023-015BC","FILE":"3875726","CLASSIFICATION_TYPE":"U","PERIOD":"95.838","EPOCH":"2023-03-30T20:01:50.198592","DECAY_DATE":null,"REF_FRAME":"TEME","COUNTRY_CODE":"US","TLE_LINE2":"2 55499  43.0026  58.9397 0000671 235.6199 124.4580 15.02531734  9676","EPHEMERIS_TYPE":"0","GP_ID":"229186452","MEAN_MOTION_DDOT":"0.0000000000000","OBJECT_TYPE":"PAYLOAD","RA_OF_ASC_NODE":"58.9397","MEAN_MOTION":"15.02531734","NORAD_CAT_ID":"55499","APOAPSIS":"559.560","SEMIMAJOR_AXIS":"6937.230","LAUNCH_DATE":"2023-02-02"}];
